NORAD_CAT_ID,OBJECT_NAME,OBJECT_TYPE,EPOCH,MEAN_MOTION,ECCENTRICITY,INCLINATION,RA_OF_ASC_NODE,ARG_OF_PERICENTER,MEAN_ANOMALY,BSTAR,MEAN_MOTION_DOT,MEAN_MOTION_DDOT,TLE_LINE0,TLE_LINE1,TLE_LINE2,SEMIMAJOR_AXIS,PERIOD,APOGEE,PERIGEE,DECAYED
52604.0,STARLINK-4013,PAYLOAD,2023-09-15 13:23:19,15.0884458,0.0001239,53.2176,26.9024,67.5999,292.5124,0.00050425,7.747e-05,0.0,0 STARLINK-4013,1 52604U 22052G   23258.55787027  .00007747  00000-0  50425-3 0  9993,2 52604  53.2176  26.9024 0001239  67.5999 292.5124 15.08844580 74061,6917.866,95.437,540.589,538.874,0.0
52604.0,STARLINK-4013,PAYLOAD,2023-09-15 14:58:43,15.08848551,0.0001288,53.2176,26.6064,63.7517,296.3607,0.00086635,0.0001353,0.0,0 STARLINK-4013,1 52604U 22052G   23258.62411152  .00013530  00000-0  86635-3 0  9993,2 52604  53.2176  26.6064 0001288  63.7517 296.3607 15.08848551 74442,6917.854,95.437,540.61,538.828,0.0
52604.0,STARLINK-4013,PAYLOAD,2023-09-16 08:27:57,15.08852909,0.0001455,53.2174,23.3331,90.3003,269.8156,0.00042322,6.456e-05,0.0,0 STARLINK-4013,1 52604U 22052G   23259.35274862  .00006456  00000-0  42322-3 0  9993,2 52604  53.2174  23.3331 0001455  90.3003 269.8156 15.08852909 74551,6917.841,95.437,540.712,538.699,0.0
52604.0,STARLINK-4013,PAYLOAD,2023-09-16 13:14:06,15.08846295,0.0001514,53.2183,22.4443,66.948,293.1672,0.00013639,1.884e-05,0.0,0 STARLINK-4013,1 52604U 22052G   23259.55146971  .00001884  00000-0  13639-3 0  9993,2 52604  53.2183  22.4443 0001514  66.9480 293.1672 15.08846295 74216,6917.861,95.437,540.774,538.679,0.0
52604.0,STARLINK-4013,PAYLOAD,2023-09-17 13:04:53,15.08848715,0.0001392,53.2185,17.9837,81.3503,278.7647,0.00020137,2.919e-05,0.0,0 STARLINK-4013,1 52604U 22052G   23260.54506712  .00002919  00000-0  20137-3 0  9998,2 52604  53.2185  17.9837 0001392  81.3503 278.7647 15.08848715 74361,6917.854,95.437,540.682,538.756,0.0
52604.0,STARLINK-4013,PAYLOAD,2023-09-18 08:09:31,15.08836293,0.0001369,53.2194,14.4164,91.7526,268.3623,0.0003054,4.575e-05,0.0,0 STARLINK-4013,1 52604U 22052G   23261.33995138  .00004575  00000-0  30540-3 0  9999,2 52604  53.2194  14.4164 0001369  91.7526 268.3623 15.08836293 74851,6917.892,95.438,540.704,538.81,0.0
52604.0,STARLINK-4013,PAYLOAD,2023-09-18 12:55:41,15.08835321,0.0001312,53.219,13.5242,87.937,272.1773,0.00038662,5.87e-05,0.0,0 STARLINK-4013,1 52604U 22052G   23261.53867232  .00005870  00000-0  38662-3 0  9996,2 52604  53.2190  13.5242 0001312  87.9370 272.1773 15.08835321 74519,6917.895,95.438,540.667,538.852,0.0
52604.0,STARLINK-4013,PAYLOAD,2023-09-19 12:46:27,15.08854929,0.0001563,53.2198,9.0644,104.0779,256.0387,0.00024243,3.574e-05,0.0,0 STARLINK-4013,1 52604U 22052G   23262.53225737  .00003574  00000-0  24243-3 0  9994,2 52604  53.2198   9.0644 0001563 104.0779 256.0387 15.08854929 75030,6917.835,95.437,540.781,538.618,0.0
52604.0,STARLINK-4013,PAYLOAD,2023-09-20 07:51:06,15.08819797,9.9e-05,53.218,5.4951,24.3941,335.7098,-0.00022483,-3.862e-05,0.0,0 STARLINK-4013,1 52604U 22052G   23263.32715737 -.00003862  00000-0 -22483-3 0  9992,2 52604  53.2180   5.4951 0000990  24.3941 335.7098 15.08819797 75151,6917.942,95.439,540.492,539.122,0.0
52604.0,STARLINK-4013,PAYLOAD,2023-09-20 14:12:39,15.08814124,0.0001379,53.2179,4.3056,65.8055,294.3081,-0.00037058,-6.177e-05,0.0,0 STARLINK-4013,1 52604U 22052G   23263.59211990 -.00006177  00000-0 -37058-3 0  9999,2 52604  53.2179   4.3056 0001379  65.8055 294.3081 15.08814124 74825,6917.959,95.439,540.778,538.87,0.0
52604.0,STARLINK-4013,PAYLOAD,2023-09-21 10:52:40,15.08832007,0.000148,53.22,0.4418,86.8591,273.2571,0.00011506,1.543e-05,0.0,0 STARLINK-4013,1 52604U 22052G   23264.45325104  .00001543  00000-0  11506-3 0  9998,2 52604  53.2200   0.4418 0001480  86.8591 273.2571 15.08832007 75326,6917.905,95.438,540.794,538.746,0.0
52604.0,STARLINK-4013,PAYLOAD,2023-09-21 12:28:03,15.08837061,0.0001384,53.2182,0.1422,71.0265,289.0877,0.00012608,1.719e-05,0.0,0 STARLINK-4013,1 52604U 22052G   23264.51948926  .00001719  00000-0  12608-3 0  9997,2 52604  53.2182   0.1422 0001384  71.0265 289.0877 15.08837061 74962,6917.889,95.438,540.712,538.797,0.0
52604.0,STARLINK-4013,PAYLOAD,2023-09-21 14:03:26,15.08841037,0.0001304,53.218,359.8437,67.5089,292.6041,0.00019017,2.74e-05,0.0,0 STARLINK-4013,1 52604U 22052G   23264.58572797  .00002740  00000-0  19017-3 0  9999,2 52604  53.2180 359.8437 0001304  67.5089 292.6041 15.08841037 75340,6917.877,95.437,540.644,538.84,0.0
52604.0,STARLINK-4013,PAYLOAD,2023-09-22 10:43:27,15.08869978,0.0001298,53.2179,355.9788,60.5635,299.5487,0.0010651,0.00016718,0.0,0 STARLINK-4013,1 52604U 22052G   23265.44684406  .00016718  00000-0  10651-2 0  9990,2 52604  53.2179 355.9788 0001298  60.5635 299.5487 15.08869978 75474,6917.789,95.436,540.552,538.756,0.0
52604.0,STARLINK-4013,PAYLOAD,2023-09-22 12:18:50,15.08880755,0.0001309,53.2179,355.6818,62.0869,298.0255,0.0012327,0.00019407,0.0,0 STARLINK-4013,1 52604U 22052G   23265.51308182  .00019407  00000-0  12327-2 0  9992,2 52604  53.2179 355.6818 0001309  62.0869 298.0255 15.08880755 75118,6917.756,95.435,540.526,538.715,0.0
52604.0,STARLINK-4013,PAYLOAD,2023-09-22 13:54:12,15.08894454,0.000131,53.2173,355.3841,62.7446,297.368,0.0012487,0.00019671,0.0,0 STARLINK-4013,1 52604U 22052G   23265.57931669  .00019671  00000-0  12487-2 0  9990,2 52604  53.2173 355.3841 0001310  62.7446 297.3680 15.08894454 75491,6917.714,95.434,540.485,538.673,0.0
52604.0,STARLINK-4013,PAYLOAD,2023-09-22 23:26:31,15.08877345,0.000126,53.2173,353.6004,61.0909,299.021,0.00025404,3.762e-05,0.0,0 STARLINK-4013,1 52604U 22052G   23265.97675020  .00003762  00000-0  25404-3 0  9998,2 52604  53.2173 353.6004 0001260  61.0909 299.0210 15.08877345 75558,6917.766,95.435,540.503,538.76,0.0
52604.0,STARLINK-4013,PAYLOAD,2023-09-23 12:09:36,15.08849881,0.0001196,53.2171,351.2216,74.1834,285.929,0.0012951,0.00020389,0.0,0 STARLINK-4013,1 52604U 22052G   23266.50667086  .00020389  00000-0  12951-2 0  9997,2 52604  53.2171 351.2216 0001196  74.1834 285.9290 15.08849881 75630,6917.85,95.437,540.543,538.888,0.0
52604.0,STARLINK-4013,PAYLOAD,2023-09-24 10:25:00,15.08842359,0.0001388,53.2174,347.0586,81.3174,278.7976,0.0004652,7.124e-05,0.0,0 STARLINK-4013,1 52604U 22052G   23267.43403428  .00007124  00000-0  46520-3 0  9990,2 52604  53.2174 347.0586 0001388  81.3174 278.7976 15.08842359 75775,6917.873,95.437,540.698,538.778,0.0
52604.0,STARLINK-4013,PAYLOAD,2023-09-24 12:00:23,15.08844186,0.0001396,53.2175,346.7618,71.9612,288.1532,0.00033948,5.12e-05,0.0,0 STARLINK-4013,1 52604U 22052G   23267.50027370  .00005120  00000-0  33948-3 0  9990,2 52604  53.2175 346.7618 0001396  71.9612 288.1532 15.08844186 75413,6917.868,95.437,540.698,538.767,0.0
52604.0,STARLINK-4013,PAYLOAD,2023-09-25 08:40:24,15.08847133,0.0001427,53.2182,342.8968,91.0005,269.1151,0.00032656,4.914e-05,0.0,0 STARLINK-4013,1 52604U 22052G   23268.36139350  .00004914  00000-0  32656-3 0  9992,2 52604  53.2182 342.8968 0001427  91.0005 269.1151 15.08847133 75916,6917.859,95.437,540.711,538.736,0.0
52604.0,STARLINK-4013,PAYLOAD,2023-09-25 11:51:10,15.08852199,0.0001455,53.2185,342.3022,90.5831,269.5328,0.00036855,5.584e-05,0.0,0 STARLINK-4013,1 52604U 22052G   23268.49386998  .00005584  00000-0  36855-3 0  9997,2 52604  53.2185 342.3022 0001455  90.5831 269.5328 15.08852199 75566,6917.843,95.437,540.715,538.702,0.0
52604.0,STARLINK-4013,PAYLOAD,2023-09-26 10:06:34,15.08837282,0.0001371,53.2173,338.1368,88.6775,271.4374,7.6859e-05,9.35e-06,0.0,0 STARLINK-4013,1 52604U 22052G   23269.42123755  .00000935  00000-0  76859-4 0  9995,2 52604  53.2173 338.1368 0001371  88.6775 271.4374 15.08837282 76077,6917.889,95.438,540.702,538.805,0.0
52604.0,STARLINK-4013,PAYLOAD,2023-09-26 11:41:57,15.08842742,0.0001381,53.2174,337.8389,87.599,272.516,0.00015019,2.103e-05,0.0,0 STARLINK-4013,1 52604U 22052G   23269.48747517  .00002103  00000-0  15019-3 0  9998,2 52604  53.2174 337.8389 0001381  87.5990 272.5160 15.08842742 75717,6917.872,95.437,540.692,538.782,0.0
52604.0,STARLINK-4013,PAYLOAD,2023-09-27 09:57:21,15.08842089,0.0001485,53.2169,333.6777,76.5678,283.548,0.00013769,1.904e-05,0.0,0 STARLINK-4013,1 52604U 22052G   23270.41483763  .00001904  00000-0  13769-3 0  9991,2 52604  53.2169 333.6777 0001485  76.5678 283.5480 15.08842089 75858,6917.874,95.437,540.766,538.712,0.0
52604.0,STARLINK-4013,PAYLOAD,2023-09-27 22:40:27,15.08841946,0.0001467,53.2165,331.2983,82.363,277.7529,0.00015732,2.217e-05,0.0,0 STARLINK-4013,1 52604U 22052G   23270.94475753  .00002217  00000-0  15732-3 0  9999,2 52604  53.2165 331.2983 0001467  82.3630 277.7529 15.08841946 76301,6917.874,95.437,540.754,538.725,0.0
52604.0,STARLINK-4013,PAYLOAD,2023-09-28 11:23:32,15.08832043,0.0001564,53.2163,328.9211,69.514,290.602,5.7508e-05,6.27e-06,0.0,0 STARLINK-4013,1 52604U 22052G   23271.47468698  .00000627  00000-0  57508-4 0  9999,2 52604  53.2163 328.9211 0001564  69.5140 290.6020 15.08832043 76383,6917.905,95.438,540.852,538.688,0.0
52604.0,STARLINK-4013,PAYLOAD,2023-09-28 12:58:55,15.08834616,0.0001602,53.2168,328.6225,94.6794,265.4381,0.00010303,1.352e-05,0.0,0 STARLINK-4013,1 52604U 22052G   23271.54092497  .00001352  00000-0  10303-3 0  9994,2 52604  53.2168 328.6225 0001602  94.6794 265.4381 15.08834616 76026,6917.897,95.438,540.87,538.654,0.0
52604.0,STARLINK-4013,PAYLOAD,2023-09-29 09:38:56,15.08841058,0.0001506,53.2164,324.7555,104.3166,255.7994,8.6538e-05,1.09e-05,0.0,0 STARLINK-4013,1 52604U 22052G   23272.40204386  .00001090  00000-0  86538-4 0  9995,2 52604  53.2164 324.7555 0001506 104.3166 255.7994 15.08841058 76525,6917.877,95.437,540.784,538.7,0.0
52604.0,STARLINK-4013,PAYLOAD,2023-09-29 11:14:19,15.08843279,0.0001625,53.2166,324.4585,102.3715,257.7459,0.0001505,2.108e-05,0.0,0 STARLINK-4013,1 52604U 22052G   23272.46828330  .00002108  00000-0  15050-3 0  9993,2 52604  53.2166 324.4585 0001625 102.3715 257.7459 15.08843279 76162,6917.87,95.437,540.86,538.611,0.0
